[{"OBJECT_NAME":"STARLINK-32908","OBJECT_ID":"2025-037H","EPOCH":"2026-03-09T21:33:28.159776","MEAN_MOTION":14.98334862,"ECCENTRICITY":0.00027491,"INCLINATION":70.0038,"RA_OF_ASC_NODE":353.9146,"ARG_OF_PERICENTER":251.3607,"MEAN_ANOMALY":108.7254,"EPHEMERIS_TYPE":0,"CLASSIFICATION_TYPE":"U","NORAD_CAT_ID":63084,"ELEMENT_SET_NO":999,"REV_AT_EPOCH":5849,"BSTAR":0.00077539397,"MEAN_MOTION_DOT":9.172e-5,"MEAN_MOTION_DDOT":0},{"OBJECT_NAME":"FENGYUN 1C DEB","OBJECT_ID":"1999-025DEQ","EPOCH":"2026-03-08T16:18:11.400768","MEAN_MOTION":15.03063896,"ECCENTRICITY":0.0041192,"INCLINATION":98.802,"RA_OF_ASC_NODE":149.1421,"ARG_OF_PERICENTER":81.4798,"MEAN_ANOMALY":279.1089,"EPHEMERIS_TYPE":0,"CLASSIFICATION_TYPE":"U","NORAD_CAT_ID":33655,"ELEMENT_SET_NO":999,"REV_AT_EPOCH":97846,"BSTAR":0.0032042236,"MEAN_MOTION_DOT":0.0004416,"MEAN_MOTION_DDOT":0}]
